{
  "norad_id": 54802,
  "name": "STARLINK-5426",
  "history": [
    {
      "epoch": "2026-03-28T17:52:34.145760Z",
      "apogee_km": 540.5907684420354,
      "perigee_km": 538.8862039222395,
      "latitude_deg": -9.093552775801196e-06,
      "longitude_deg": 168.73323591339636,
      "height_km": 540.5918881339162,
      "semi_major_axis_km": 6917.875486182137,
      "eccentricity": 0.0001232,
      "inclination_deg": 53.2166,
      "raan_deg": 263.0364,
      "arg_perigee_deg": 87.1484,
      "mean_anomaly_deg": 272.9649,
      "mean_motion_rev_day": 15.08841604
    },
    {
      "epoch": "2026-03-29T05:00:16.053696Z",
      "apogee_km": 540.6013326418215,
      "perigee_km": 538.8746310463521,
      "latitude_deg": -5.401459240099214e-05,
      "longitude_deg": -0.7295372407603119,
      "height_km": 540.5656851394056,
      "semi_major_axis_km": 6917.8749818440865,
      "eccentricity": 0.0001248,
      "inclination_deg": 53.2167,
      "raan_deg": 260.9553,
      "arg_perigee_deg": 85.476,
      "mean_anomaly_deg": 274.6374,
      "mean_motion_rev_day": 15.08841769
    },
    {
      "epoch": "2026-03-30T04:51:03.190464Z",
      "apogee_km": 540.6272336709571,
      "perigee_km": 538.8570867514409,
      "latitude_deg": 2.8020304980587615e-06,
      "longitude_deg": -3.8657355122788073,
      "height_km": 540.5488000801575,
      "semi_major_axis_km": 6917.879160211199,
      "eccentricity": 0.00012794,
      "inclination_deg": 53.2169,
      "raan_deg": 256.4948,
      "arg_perigee_deg": 84.22,
      "mean_anomaly_deg": 275.8938,
      "mean_motion_rev_day": 15.08840402
    },
    {
      "epoch": "2026-03-30T17:34:08.159232Z",
      "apogee_km": 540.6556356964666,
      "perigee_km": 538.823781943971,
      "latitude_deg": 2.0493385082498158e-05,
      "longitude_deg": 162.4610634284131,
      "height_km": 540.6701832234777,
      "semi_major_axis_km": 6917.8767088202185,
      "eccentricity": 0.0001324,
      "inclination_deg": 53.217,
      "raan_deg": 254.1146,
      "arg_perigee_deg": 92.1751,
      "mean_anomaly_deg": 267.9393,
      "mean_motion_rev_day": 15.08841204
    },
    {
      "epoch": "2026-03-31T17:24:55.530144Z",
      "apogee_km": 540.6687941738619,
      "perigee_km": 538.8258697878209,
      "latitude_deg": -5.835366170800561e-05,
      "longitude_deg": 159.32398670662502,
      "height_km": 540.6622981627015,
      "semi_major_axis_km": 6917.884331980841,
      "eccentricity": 0.0001332,
      "inclination_deg": 53.2163,
      "raan_deg": 249.6543,
      "arg_perigee_deg": 91.202,
      "mean_anomaly_deg": 268.9124,
      "mean_motion_rev_day": 15.0883871
    },
    {
      "epoch": "2026-04-01T17:15:42.572736Z",
      "apogee_km": 540.647539172538,
      "perigee_km": 538.8461222230244,
      "latitude_deg": -2.0674735680208368e-05,
      "longitude_deg": 156.1890683164492,
      "height_km": 540.6690886352442,
      "semi_major_axis_km": 6917.8838306977805,
      "eccentricity": 0.0001302,
      "inclination_deg": 53.2163,
      "raan_deg": 245.1947,
      "arg_perigee_deg": 91.6914,
      "mean_anomaly_deg": 268.4227,
      "mean_motion_rev_day": 15.08838874
    },
    {
      "epoch": "2026-04-02T18:41:52.811808Z",
      "apogee_km": 540.6859324254392,
      "perigee_km": 538.8139522188476,
      "latitude_deg": 7.43379824689789e-05,
      "longitude_deg": 128.8434503644883,
      "height_km": 540.673880418893,
      "semi_major_axis_km": 6917.886942322143,
      "eccentricity": 0.0001353,
      "inclination_deg": 53.215,
      "raan_deg": 240.4363,
      "arg_perigee_deg": 91.7442,
      "mean_anomaly_deg": 268.3706,
      "mean_motion_rev_day": 15.08837856
    },
    {
      "epoch": "2026-04-02T18:41:52.812672Z",
      "apogee_km": 540.6860707831784,
      "perigee_km": 538.8138138611084,
      "latitude_deg": 7.250369602597186e-05,
      "longitude_deg": 128.84344539067163,
      "height_km": 540.6738846281229,
      "semi_major_axis_km": 6917.886942322143,
      "eccentricity": 0.00013532,
      "inclination_deg": 53.215,
      "raan_deg": 240.4363,
      "arg_perigee_deg": 91.7442,
      "mean_anomaly_deg": 268.3706,
      "mean_motion_rev_day": 15.08837856
    },
    {
      "epoch": "2026-04-03T18:32:39.788736Z",
      "apogee_km": 540.6850939553251,
      "perigee_km": 538.7909797702314,
      "latitude_deg": 1.0955963675854902e-05,
      "longitude_deg": 125.70753000107561,
      "height_km": 540.5969210055774,
      "semi_major_axis_km": 6917.875036862778,
      "eccentricity": 0.0001369,
      "inclination_deg": 53.2161,
      "raan_deg": 235.9755,
      "arg_perigee_deg": 87.7808,
      "mean_anomaly_deg": 272.3341,
      "mean_motion_rev_day": 15.08841751
    },
    {
      "epoch": "2026-04-03T18:32:39.789600Z",
      "apogee_km": 540.6847480615734,
      "perigee_km": 538.791325663984,
      "latitude_deg": 1.5580802716034363e-05,
      "longitude_deg": 125.70752983003786,
      "height_km": 540.5969343975877,
      "semi_major_axis_km": 6917.875036862778,
      "eccentricity": 0.00013685,
      "inclination_deg": 53.2161,
      "raan_deg": 235.9755,
      "arg_perigee_deg": 87.7808,
      "mean_anomaly_deg": 272.3341,
      "mean_motion_rev_day": 15.08841751
    },
    {
      "epoch": "2026-04-05T15:03:28.410624Z",
      "apogee_km": 540.6510799872622,
      "perigee_km": 538.8755316947663,
      "latitude_deg": -1.3251746415944104e-05,
      "longitude_deg": 167.85111397416074,
      "height_km": 540.6658354094056,
      "semi_major_axis_km": 6917.900305841014,
      "eccentricity": 0.00012833,
      "inclination_deg": 53.2161,
      "raan_deg": 227.6498,
      "arg_perigee_deg": 90.4425,
      "mean_anomaly_deg": 269.6714,
      "mean_motion_rev_day": 15.08833484
    },
    {
      "epoch": "2026-04-05T18:14:14.661024Z",
      "apogee_km": 540.7132657214224,
      "perigee_km": 538.7983929862567,
      "latitude_deg": 2.6746671405832794e-05,
      "longitude_deg": 119.43315547808767,
      "height_km": 540.6731519174931,
      "semi_major_axis_km": 6917.892829353839,
      "eccentricity": 0.0001384,
      "inclination_deg": 53.2158,
      "raan_deg": 227.0551,
      "arg_perigee_deg": 91.3062,
      "mean_anomaly_deg": 268.8089,
      "mean_motion_rev_day": 15.0883593
    },
    {
      "epoch": "2026-04-07T14:45:03.093696Z",
      "apogee_km": 540.6406511994337,
      "perigee_km": 538.8298289618697,
      "latitude_deg": -6.962985928132256e-05,
      "longitude_deg": 161.57727372891597,
      "height_km": 540.6848742518459,
      "semi_major_axis_km": 6917.872240080652,
      "eccentricity": 0.00013088,
      "inclination_deg": 53.2178,
      "raan_deg": 218.7292,
      "arg_perigee_deg": 93.4066,
      "mean_anomaly_deg": 266.7075,
      "mean_motion_rev_day": 15.08842666
    }
  ]
}